{
  "norad_id": 65970,
  "name": "KUIPER-00157",
  "history": [
    {
      "epoch": "2026-03-28T19:55:55.575840Z",
      "apogee_km": 629.6525025526144,
      "perigee_km": 629.2668044328066,
      "latitude_deg": 1.097874752375516e-05,
      "longitude_deg": 128.35182422148304,
      "height_km": 630.2037573566411,
      "semi_major_axis_km": 7007.59665349271,
      "eccentricity": 2.752e-05,
      "inclination_deg": 51.9016,
      "raan_deg": 253.5787,
      "arg_perigee_deg": 89.2677,
      "mean_anomaly_deg": 270.8317,
      "mean_motion_rev_day": 14.79957068
    }
  ]
}